[{"OBJECT_NAME":"SITRO-AIS 8 (ANOKHIN)","OBJECT_ID":"2023-091AD","EPOCH":"2026-03-09T23:44:40.058592","MEAN_MOTION":15.29359179,"ECCENTRICITY":0.0012509,"INCLINATION":97.5169,"RA_OF_ASC_NODE":133.2823,"ARG_OF_PERICENTER":92.0171,"MEAN_ANOMALY":268.2501,"EPHEMERIS_TYPE":0,"CLASSIFICATION_TYPE":"U","NORAD_CAT_ID":57193,"ELEMENT_SET_NO":999,"REV_AT_EPOCH":14927,"BSTAR":0.00064982524,"MEAN_MOTION_DOT":0.00018494,"MEAN_MOTION_DDOT":0},{"OBJECT_NAME":"STARLINK-34135","OBJECT_ID":"2025-099N","EPOCH":"2026-03-09T08:08:01.376448","MEAN_MOTION":15.27590381,"ECCENTRICITY":0.00020956,"INCLINATION":43.0012,"RA_OF_ASC_NODE":178.117,"ARG_OF_PERICENTER":282.0487,"MEAN_ANOMALY":78.013,"EPHEMERIS_TYPE":0,"CLASSIFICATION_TYPE":"U","NORAD_CAT_ID":63964,"ELEMENT_SET_NO":999,"REV_AT_EPOCH":4728,"BSTAR":0.00086767981,"MEAN_MOTION_DOT":0.00023699,"MEAN_MOTION_DDOT":0}]
